start=new Date('2021-11-12T00:00:00.000Z').valueOf();
sats=[{"INCLINATION":"53.0557","TIME_SYSTEM":"UTC","EPOCH":"2021-11-11T07:30:54.914112","RCS_SIZE":"LARGE","APOAPSIS":"548.312","REV_AT_EPOCH":"4548","SEMIMAJOR_AXIS":"6925.324","ELEMENT_SET_NO":"999","PERIOD":"95.592","OBJECT_NAME":"STARLINK-2046","DECAY_DATE":null,"ECCENTRICITY":"0.00016220","REF_FRAME":"TEME","MEAN_MOTION":"15.06408147","MEAN_MOTION_DDOT":"0.0000000000000","ARG_OF_PERICENTER":"72.6846","RA_OF_ASC_NODE":"276.7225","SITE":"AFETR","MEAN_MOTION_DOT":"0.00000402","CENTER_NAME":"EARTH","LAUNCH_DATE":"2021-01-20","OBJECT_ID":"2021-005F","EPHEMERIS_TYPE":"0","FILE":"3212088","MEAN_ANOMALY":"287.4320","NORAD_CAT_ID":"47354","CLASSIFICATION_TYPE":"U","OBJECT_TYPE":"PAYLOAD","GP_ID":"189493791","TLE_LINE1":"1 47354U 21005F   21315.31313558  .00000402  00000-0  45853-4 0  9997","COUNTRY_CODE":"US","BSTAR":"0.00004585300000","MEAN_ELEMENT_THEORY":"SGP4","TLE_LINE2":"2 47354  53.0557 276.7225 0001622  72.6846 287.4320 15.06408147 45488","PERIAPSIS":"546.065"},{"PERIOD":"95.653","SEMIMAJOR_AXIS":"6928.284","ELEMENT_SET_NO":"999","REV_AT_EPOCH":"4570","APOAPSIS":"551.163","RCS_SIZE":"LARGE","EPOCH":"2021-11-11T09:16:37.526016","INCLINATION":"53.0538","TIME_SYSTEM":"UTC","CENTER_NAME":"EARTH","MEAN_MOTION_DOT":"-0.00112269","RA_OF_ASC_NODE":"261.3876","SITE":"AFETR","ARG_OF_PERICENTER":"47.3703","MEAN_MOTION_DDOT":"0.0000000000000","REF_FRAME":"TEME","MEAN_MOTION":"15.05442725","OBJECT_NAME":"STARLINK-2047","DECAY_DATE":null,"ECCENTRICITY":"0.00014640","CLASSIFICATION_TYPE":"U","NORAD_CAT_ID":"47355","MEAN_ANOMALY":"312.7409","FILE":"3212088","EPHEMERIS_TYPE":"0","OBJECT_ID":"2021-005G","LAUNCH_DATE":"2021-01-20","PERIAPSIS":"549.135","TLE_LINE2":"2 47355  53.0538 261.3876 0001464  47.3703 312.7409 15.05442725 45709","MEAN_ELEMENT_THEORY":"SGP4","BSTAR":"-0.00783800000000","COUNTRY_CODE":"US","TLE_LINE1":"1 47355U 21005G   21315.38654544 -.00112269  00000-0 -78380-2 0  9994","GP_ID":"189494041","OBJECT_TYPE":"PAYLOAD"},{"RA_OF_ASC_NODE":"280.2265","SITE":"AFETR","ARG_OF_PERICENTER":"63.3430","MEAN_MOTION_DDOT":"0.0000000000000","REF_FRAME":"TEME","MEAN_MOTION":"15.06401934","DECAY_DATE":null,"OBJECT_NAME":"STARLINK-2049","ECCENTRICITY":"0.00016350","CENTER_NAME":"EARTH","MEAN_MOTION_DOT":"-0.00000008","RCS_SIZE":"LARGE","EPOCH":"2021-11-11T15:30:35.190432","TIME_SYSTEM":"UTC","INCLINATION":"53.0550","PERIOD":"95.592","SEMIMAJOR_AXIS":"6925.343","ELEMENT_SET_NO":"999","REV_AT_EPOCH":"4546","APOAPSIS":"548.340","TLE_LINE1":"1 47356U 21005H   21315.64624063 -.00000008  00000-0  18334-4 0  9998","GP_ID":"189527829","OBJECT_TYPE":"PAYLOAD","PERIAPSIS":"546.075","TLE_LINE2":"2 47356  53.0550 280.2265 0001635  63.3430 296.7727 15.06401934 45466","BSTAR":"0.00001833400000","MEAN_ELEMENT_THEORY":"SGP4","COUNTRY_CODE":"US","LAUNCH_DATE":"2021-01-20","CLASSIFICATION_TYPE":"U","NORAD_CAT_ID":"47356","MEAN_ANOMALY":"296.7727","FILE":"3212485","EPHEMERIS_TYPE":"0","OBJECT_ID":"2021-005H"},{"ECCENTRICITY":"0.00014620","DECAY_DATE":null,"OBJECT_NAME":"STARLINK-2050","ARG_OF_PERICENTER":"73.7094","MEAN_MOTION_DDOT":"0.0000000000000","REF_FRAME":"TEME","MEAN_MOTION":"15.06420461","SITE":"AFETR","RA_OF_ASC_NODE":"309.8976","MEAN_MOTION_DOT":"0.00004663","CENTER_NAME":"EARTH","INCLINATION":"53.0520","TIME_SYSTEM":"UTC","RCS_SIZE":"LARGE","EPOCH":"2021-11-11T17:18:05.004000","SEMIMAJOR_AXIS":"6925.286","ELEMENT_SET_NO":"999","REV_AT_EPOCH":"4505","APOAPSIS":"548.163","PERIOD":"95.591","OBJECT_TYPE":"PAYLOAD","TLE_LINE1":"1 47357U 21005J   21315.72089125  .00004663  00000-0  33158-3 0  9992","GP_ID":"189526577","COUNTRY_CODE":"US","BSTAR":"0.00033158000000","MEAN_ELEMENT_THEORY":"SGP4","PERIAPSIS":"546.138","TLE_LINE2":"2 47357  53.0520 309.8976 0001462  73.7094 286.4055 15.06420461 45051","LAUNCH_DATE":"2021-01-20","OBJECT_ID":"2021-005J","EPHEMERIS_TYPE":"0","NORAD_CAT_ID":"47357","MEAN_ANOMALY":"286.4055","FILE":"3212485","CLASSIFICATION_TYPE":"U"},{"SEMIMAJOR_AXIS":"6925.338","ELEMENT_SET_NO":"999","REV_AT_EPOCH":"4550","APOAPSIS":"548.263","PERIOD":"95.592","TIME_SYSTEM":"UTC","INCLINATION":"53.0553","RCS_SIZE":"LARGE","EPOCH":"2021-11-11T22:08:40.339968","CENTER_NAME":"EARTH","MEAN_MOTION_DOT":"0.00000175","ECCENTRICITY":"0.00015310","DECAY_DATE":null,"OBJECT_NAME":"STARLINK-2055","SITE":"AFETR","RA_OF_ASC_NODE":"278.9757","ARG_OF_PERICENTER":"63.6332","MEAN_MOTION_DDOT":"0.0000000000000","MEAN_MOTION":"15.06403371","REF_FRAME":"TEME","EPHEMERIS_TYPE":"0","OBJECT_ID":"2021-005K","CLASSIFICATION_TYPE":"U","NORAD_CAT_ID":"47358","MEAN_ANOMALY":"296.4814","FILE":"3212485","LAUNCH_DATE":"2021-01-20","COUNTRY_CODE":"US","PERIAPSIS":"546.143","TLE_LINE2":"2 47358  53.0553 278.9757 0001531  63.6332 296.4814 15.06403371 45506","BSTAR":"0.00003064000000","MEAN_ELEMENT_THEORY":"SGP4","OBJECT_TYPE":"PAYLOAD","TLE_LINE1":"1 47358U 21005K   21315.92268912  .00000175  00000-0  30640-4 0  9996","GP_ID":"189526827"},{"LAUNCH_DATE":"2021-01-20","NORAD_CAT_ID":"47359","MEAN_ANOMALY":"292.6602","FILE":"3212485","CLASSIFICATION_TYPE":"U","OBJECT_ID":"2021-005L","EPHEMERIS_TYPE":"0","TLE_LINE1":"1 47359U 21005L   21315.66790190 -.00001325  00000-0 -70078-4 0  9995","GP_ID":"189527081","OBJECT_TYPE":"PAYLOAD","BSTAR":"-0.00007007800000","MEAN_ELEMENT_THEORY":"SGP4","PERIAPSIS":"546.154","TLE_LINE2":"2 47359  53.0545 305.1277 0001543  67.4550 292.6602 15.06396927 45113","COUNTRY_CODE":"US","RCS_SIZE":"LARGE","EPOCH":"2021-11-11T16:01:46.724160","TIME_SYSTEM":"UTC","INCLINATION":"53.0545","PERIOD":"95.592","ELEMENT_SET_NO":"999","SEMIMAJOR_AXIS":"6925.358","REV_AT_EPOCH":"4511","APOAPSIS":"548.292","ARG_OF_PERICENTER":"67.4550","MEAN_MOTION_DDOT":"0.0000000000000","MEAN_MOTION":"15.06396927","REF_FRAME":"TEME","SITE":"AFETR","RA_OF_ASC_NODE":"305.1277","DECAY_DATE":null,"ECCENTRICITY":"0.00015430","OBJECT_NAME":"STARLINK-2069","MEAN_MOTION_DOT":"-0.00001325","CENTER_NAME":"EARTH"},{"PERIAPSIS":"546.073","TLE_LINE2":"2 47360  53.0538 273.9080 0001642  65.1712 294.9448 15.06400970 45584","MEAN_ELEMENT_THEORY":"SGP4","BSTAR":"0.00013611000000","COUNTRY_CODE":"US","TLE_LINE1":"1 47360U 21005M   21315.93974087  .00001746  00000-0  13611-3 0  9990","GP_ID":"189527332","OBJECT_TYPE":"PAYLOAD","CLASSIFICATION_TYPE":"U","NORAD_CAT_ID":"47360","MEAN_ANOMALY":"294.9448","FILE":"3212485","EPHEMERIS_TYPE":"0","OBJECT_ID":"2021-005M","LAUNCH_DATE":"2021-01-20","CENTER_NAME":"EARTH","MEAN_MOTION_DOT":"0.00001746","RA_OF_ASC_NODE":"273.9080","SITE":"AFETR","MEAN_MOTION_DDOT":"0.0000000000000","ARG_OF_PERICENTER":"65.1712","MEAN_MOTION":"15.06400970","REF_FRAME":"TEME","ECCENTRICITY":"0.00016420","DECAY_DATE":null,"OBJECT_NAME":"STARLINK-2070","PERIOD":"95.592","SEMIMAJOR_AXIS":"6925.346","ELEMENT_SET_NO":"999","REV_AT_EPOCH":"4558","APOAPSIS":"548.348","RCS_SIZE":"LARGE","EPOCH":"2021-11-11T22:33:13.611168","INCLINATION":"53.0538","TIME_SYSTEM":"UTC"},{"LAUNCH_DATE":"2021-01-20","OBJECT_ID":"2021-005N","EPHEMERIS_TYPE":"0","FILE":"3212485","NORAD_CAT_ID":"47361","MEAN_ANOMALY":"298.9703","CLASSIFICATION_TYPE":"U","OBJECT_TYPE":"PAYLOAD","GP_ID":"189526080","TLE_LINE1":"1 47361U 21005N   21315.59833446 -.00002466  00000-0 -14669-3 0  9992","COUNTRY_CODE":"US","BSTAR":"-0.00014669000000","MEAN_ELEMENT_THEORY":"SGP4","TLE_LINE2":"2 47361  53.0526 280.4208 0001827  61.1469 298.9703 15.06397950 45454","PERIAPSIS":"545.955","TIME_SYSTEM":"UTC","INCLINATION":"53.0526","EPOCH":"2021-11-11T14:21:36.097344","RCS_SIZE":"LARGE","REV_AT_EPOCH":"4545","APOAPSIS":"548.485","SEMIMAJOR_AXIS":"6925.355","ELEMENT_SET_NO":"999","PERIOD":"95.592","ECCENTRICITY":"0.00018270","DECAY_DATE":null,"OBJECT_NAME":"STARLINK-2071","MEAN_MOTION":"15.06397950","REF_FRAME":"TEME","ARG_OF_PERICENTER":"61.1469","MEAN_MOTION_DDOT":"0.0000000000000","SITE":"AFETR","RA_OF_ASC_NODE":"280.4208","MEAN_MOTION_DOT":"-0.00002466","CENTER_NAME":"EARTH"},{"MEAN_MOTION_DDOT":"0.0000000000000","ARG_OF_PERICENTER":"73.4794","REF_FRAME":"TEME","MEAN_MOTION":"15.06412039","RA_OF_ASC_NODE":"309.9418","SITE":"AFETR","DECAY_DATE":null,"OBJECT_NAME":"STARLINK-2076","ECCENTRICITY":"0.00016130","MEAN_MOTION_DOT":"0.00000845","CENTER_NAME":"EARTH","RCS_SIZE":"LARGE","EPOCH":"2021-11-11T17:02:09.449376","INCLINATION":"53.0544","TIME_SYSTEM":"UTC","PERIOD":"95.591","SEMIMAJOR_AXIS":"6925.312","ELEMENT_SET_NO":"999","APOAPSIS":"548.294","REV_AT_EPOCH":"4505","TLE_LINE1":"1 47362U 21005P   21315.70983159  .00000845  00000-0  75627-4 0  9992","GP_ID":"189526330","OBJECT_TYPE":"PAYLOAD","BSTAR":"0.00007562700000","MEAN_ELEMENT_THEORY":"SGP4","PERIAPSIS":"546.060","TLE_LINE2":"2 47362  53.0544 309.9418 0001613  73.4794 286.6373 15.06412039 45054","COUNTRY_CODE":"US","LAUNCH_DATE":"2021-01-20","NORAD_CAT_ID":"47362","MEAN_ANOMALY":"286.6373","FILE":"3212485","CLASSIFICATION_TYPE":"U","OBJECT_ID":"2021-005P","EPHEMERIS_TYPE":"0"},{"EPHEMERIS_TYPE":"0","OBJECT_ID":"2021-005Q","CLASSIFICATION_TYPE":"U","FILE":"3212485","NORAD_CAT_ID":"47363","MEAN_ANOMALY":"295.7865","LAUNCH_DATE":"2021-01-20","COUNTRY_CODE":"US","TLE_LINE2":"2 47363  53.0532 309.9189 0001779  64.3307 295.7865 15.06421446 45058","PERIAPSIS":"545.916","MEAN_ELEMENT_THEORY":"SGP4","BSTAR":"0.00034065000000","OBJECT_TYPE":"PAYLOAD","GP_ID":"189527579","TLE_LINE1":"1 47363U 21005Q   21315.71353066  .00004799  00000-0  34065-3 0  9994","APOAPSIS":"548.380","REV_AT_EPOCH":"4505","ELEMENT_SET_NO":"999","SEMIMAJOR_AXIS":"6925.283","PERIOD":"95.591","TIME_SYSTEM":"UTC","INCLINATION":"53.0532","EPOCH":"2021-11-11T17:07:29.049024","RCS_SIZE":"LARGE","CENTER_NAME":"EARTH","MEAN_MOTION_DOT":"0.00004799","DECAY_DATE":null,"ECCENTRICITY":"0.00017790","OBJECT_NAME":"STARLINK-2077","SITE":"AFETR","RA_OF_ASC_NODE":"309.9189","REF_FRAME":"TEME","MEAN_MOTION":"15.06421446","ARG_OF_PERICENTER":"64.3307","MEAN_MOTION_DDOT":"0.0000000000000"}];
